AFOTEC-1 (FALCON ODE)   
1 44225U 19026A   20211.09253977  .00000642  00000-0  36535-4 0  9991
2 44225  40.0192 116.7850 0006698 335.9910  24.0578 15.20867436 68633
SPARC-1                 
1 44226U 19026B   20211.12198732  .00001175  00000-0  57756-4 0  9993
2 44226  40.0189 111.6440 0010805 341.5412  18.4996 15.22306293 68692
ELECTRON KICK STAGE R/B 
1 44227U 19026C   20211.13217628  .00001023  00000-0  51795-4 0  9990
2 44227  40.0245 112.8067 0009159 343.7666  16.2840 15.21955959 68680
HARBINGER (ICEYE-X3)    
1 44229U 19026E   20211.08478716  .00000672  00000-0  37600-4 0  9991
2 44229  40.0191 115.8226 0007684 331.4292  28.6087 15.21093270 68647
